[{"OBJECT_NAME":"TEN-KOH","OBJECT_ID":"2018-084G","EPOCH":"2026-03-09T23:23:52.653408","MEAN_MOTION":15.02465351,"ECCENTRICITY":0.0011972,"INCLINATION":98.0798,"RA_OF_ASC_NODE":257.1735,"ARG_OF_PERICENTER":91.8355,"MEAN_ANOMALY":268.424,"EPHEMERIS_TYPE":0,"CLASSIFICATION_TYPE":"U","NORAD_CAT_ID":43677,"ELEMENT_SET_NO":999,"REV_AT_EPOCH":40126,"BSTAR":0.00025918134,"MEAN_MOTION_DOT":3.377e-5,"MEAN_MOTION_DDOT":0},{"OBJECT_NAME":"FENGYUN 1C DEB","OBJECT_ID":"1999-025CJB","EPOCH":"2026-03-04T10:30:16.287264","MEAN_MOTION":14.84272597,"ECCENTRICITY":0.00915644,"INCLINATION":98.0869,"RA_OF_ASC_NODE":145.0566,"ARG_OF_PERICENTER":112.3308,"MEAN_ANOMALY":248.7643,"EPHEMERIS_TYPE":0,"CLASSIFICATION_TYPE":"U","NORAD_CAT_ID":31837,"ELEMENT_SET_NO":999,"REV_AT_EPOCH":99570,"BSTAR":0.0020173845,"MEAN_MOTION_DOT":0.00018196,"MEAN_MOTION_DDOT":0}]
